{
  "type": "FeatureCollection",
  "features": [
    {
      "type": "Feature",
      "properties": {
        "norad_id": 49336,
        "name": "QZS-1R (QZSS/PRN 196)",
        "group": "gnss",
        "lat": 32.489559938611315,
        "lon": 139.90760054355857,
        "alt_km": 38517.525250719926,
        "timestamp": "2025-12-02T19:35:50.800024+00:00",
        "meta_object_name": "QZS-1R (QZSS/PRN 196)",
        "meta_object_id": "2021-096A",
        "meta_epoch": "2025-12-01T04:08:48.475392",
        "meta_mean_motion": 1.0026089,
        "meta_eccentricity": 0.0753298,
        "meta_inclination": 37.0524,
        "meta_ra_of_asc_node": 82.5332,
        "meta_arg_of_pericenter": 271.0716,
        "meta_mean_anomaly": 274.2635,
        "meta_ephemeris_type": 0,
        "meta_classification_type": "U",
        "meta_norad_cat_id": 49336,
        "meta_element_set_no": 999,
        "meta_rev_at_epoch": 1502,
        "meta_bstar": 0,
        "meta_mean_motion_dot": -2.17e-06,
        "meta_mean_motion_ddot": 0,
        "tle_line1": "1 49336U 21096A   25335.17278328 -.00000217  00000+0  00000+0 0  9998",
        "tle_line2": "2 49336  37.0524  82.5332 0753298 271.0716 274.2635  1.00260890 15022"
      },
      "geometry": {
        "type": "Point",
        "coordinates": [
          139.90760054355857,
          32.489559938611315
        ]
      }
    },
    {
      "type": "Feature",
      "properties": {
        "norad_id": 49809,
        "name": "GSAT0223 (GALILEO 27)",
        "group": "gnss",
        "lat": -19.1186883408324,
        "lon": 179.89832308313316,
        "alt_km": 23214.722539067407,
        "timestamp": "2025-12-02T19:35:50.800038+00:00",
        "meta_object_name": "GSAT0223 (GALILEO 27)",
        "meta_object_id": "2021-116A",
        "meta_epoch": "2025-12-01T07:17:38.669856",
        "meta_mean_motion": 1.70475545,
        "meta_eccentricity": 0.00047526,
        "meta_inclination": 57.2221,
        "meta_ra_of_asc_node": 347.0231,
        "meta_arg_of_pericenter": 247.908,
        "meta_mean_anomaly": 106.7158,
        "meta_ephemeris_type": 0,
        "meta_classification_type": "U",
        "meta_norad_cat_id": 49809,
        "meta_element_set_no": 999,
        "meta_rev_at_epoch": 2480,
        "meta_bstar": 0,
        "meta_mean_motion_dot": -5.9e-07,
        "meta_mean_motion_ddot": 0,
        "tle_line1": "1 49809U 21116A   25335.30391979 -.00000059  00000+0  00000+0 0  9993",
        "tle_line2": "2 49809  57.2221 347.0231 0004752 247.9080 106.7158  1.70475545 24809"
      },
      "geometry": {
        "type": "Point",
        "coordinates": [
          179.89832308313316,
          -19.1186883408324
        ]
      }
    },
    {
      "type": "Feature",
      "properties": {
        "norad_id": 49810,
        "name": "GSAT0224 (GALILEO 28)",
        "group": "gnss",
        "lat": -36.04060247033926,
        "lon": -40.974222443834776,
        "alt_km": 23222.097918839245,
        "timestamp": "2025-12-02T19:35:50.800052+00:00",
        "meta_object_name": "GSAT0224 (GALILEO 28)",
        "meta_object_id": "2021-116B",
        "meta_epoch": "2025-11-22T08:02:15.403200",
        "meta_mean_motion": 1.70476295,
        "meta_eccentricity": 0.00038769,
        "meta_inclination": 57.2249,
        "meta_ra_of_asc_node": 347.264,
        "meta_arg_of_pericenter": 247.2257,
        "meta_mean_anomaly": 115.5015,
        "meta_ephemeris_type": 0,
        "meta_classification_type": "U",
        "meta_norad_cat_id": 49810,
        "meta_element_set_no": 999,
        "meta_rev_at_epoch": 2468,
        "meta_bstar": 0,
        "meta_mean_motion_dot": -6.8e-07,
        "meta_mean_motion_ddot": 0,
        "tle_line1": "1 49810U 21116B   25326.33490050 -.00000068  00000+0  00000+0 0  9998",
        "tle_line2": "2 49810  57.2249 347.2640 0003876 247.2257 115.5015  1.70476295 24681"
      },
      "geometry": {
        "type": "Point",
        "coordinates": [
          -40.974222443834776,
          -36.04060247033926
        ]
      }
    },
    {
      "type": "Feature",
      "properties": {
        "norad_id": 52984,
        "name": "COSMOS 2557 (706K)",
        "group": "gnss",
        "lat": -58.71124908982103,
        "lon": -166.563573764596,
        "alt_km": 19104.343339474544,
        "timestamp": "2025-12-02T19:35:50.800065+00:00",
        "meta_object_name": "COSMOS 2557 (706K)",
        "meta_object_id": "2022-075A",
        "meta_epoch": "2025-12-01T01:56:28.375008",
        "meta_mean_motion": 2.13101767,
        "meta_eccentricity": 0.00137561,
        "meta_inclination": 64.4163,
        "meta_ra_of_asc_node": 321.4618,
        "meta_arg_of_pericenter": 276.3647,
        "meta_mean_anomaly": 83.4921,
        "meta_ephemeris_type": 0,
        "meta_classification_type": "U",
        "meta_norad_cat_id": 52984,
        "meta_element_set_no": 999,
        "meta_rev_at_epoch": 2649,
        "meta_bstar": 0,
        "meta_mean_motion_dot": -2.7e-07,
        "meta_mean_motion_ddot": 0,
        "tle_line1": "1 52984U 22075A   25335.08088397 -.00000027  00000+0  00000+0 0  9993",
        "tle_line2": "2 52984  64.4163 321.4618 0013756 276.3647  83.4921  2.13101767 26492"
      },
      "geometry": {
        "type": "Point",
        "coordinates": [
          -166.563573764596,
          -58.71124908982103
        ]
      }
    },
    {
      "type": "Feature",
      "properties": {
        "norad_id": 54031,
        "name": "COSMOS 2559 (707K)",
        "group": "gnss",
        "lat": 26.994622613176915,
        "lon": -24.369803141980523,
        "alt_km": 19156.249093215454,
        "timestamp": "2025-12-02T19:35:50.800077+00:00",
        "meta_object_name": "COSMOS 2559 (707K)",
        "meta_object_id": "2022-130A",
        "meta_epoch": "2025-12-02T07:23:14.790048",
        "meta_mean_motion": 2.1310125,
        "meta_eccentricity": 0.0012076,
        "meta_inclination": 64.3878,
        "meta_ra_of_asc_node": 321.5084,
        "meta_arg_of_pericenter": 192.7828,
        "meta_mean_anomaly": 167.1956,
        "meta_ephemeris_type": 0,
        "meta_classification_type": "U",
        "meta_norad_cat_id": 54031,
        "meta_element_set_no": 999,
        "meta_rev_at_epoch": 2449,
        "meta_bstar": 0,
        "meta_mean_motion_dot": -3.6e-07,
        "meta_mean_motion_ddot": 0,
        "tle_line1": "1 54031U 22130A   25336.30781007 -.00000036  00000+0  00000+0 0  9994",
        "tle_line2": "2 54031  64.3878 321.5084 0012076 192.7828 167.1956  2.13101250 24496"
      },
      "geometry": {
        "type": "Point",
        "coordinates": [
          -24.369803141980523,
          26.994622613176915
        ]
      }
    },
    {
      "type": "Feature",
      "properties": {
        "norad_id": 54377,
        "name": "COSMOS 2564 (761)",
        "group": "gnss",
        "lat": 27.158304179560833,
        "lon": 5.21795574331453,
        "alt_km": 19114.669052891957,
        "timestamp": "2025-12-02T19:35:50.800088+00:00",
        "meta_object_name": "COSMOS 2564 (761)",
        "meta_object_id": "2022-161A",
        "meta_epoch": "2025-12-01T05:07:31.965888",
        "meta_mean_motion": 2.13101951,
        "meta_eccentricity": 0.0008738,
        "meta_inclination": 64.7376,
        "meta_ra_of_asc_node": 199.2819,
        "meta_arg_of_pericenter": 206.5464,
        "meta_mean_anomaly": 153.5009,
        "meta_ephemeris_type": 0,
        "meta_classification_type": "U",
        "meta_norad_cat_id": 54377,
        "meta_element_set_no": 999,
        "meta_rev_at_epoch": 2341,
        "meta_bstar": 0,
        "meta_mean_motion_dot": 1e-06,
        "meta_mean_motion_ddot": 0,
        "tle_line1": "1 54377U 22161A   25335.21356442  .00000100  00000+0  00000+0 0  9992",
        "tle_line2": "2 54377  64.7376 199.2819 0008738 206.5464 153.5009  2.13101951 23419"
      },
      "geometry": {
        "type": "Point",
        "coordinates": [
          5.21795574331453,
          27.158304179560833
        ]
      }
    },
    {
      "type": "Feature",
      "properties": {
        "norad_id": 55268,
        "name": "GPS BIII-6  (PRN 28)",
        "group": "gnss",
        "lat": -30.606607191761167,
        "lon": 0.628838266204269,
        "alt_km": 20193.93218649627,
        "timestamp": "2025-12-02T19:35:50.800099+00:00",
        "meta_object_name": "GPS BIII-6  (PRN 28)",
        "meta_object_id": "2023-009A",
        "meta_epoch": "2025-11-30T00:32:38.315616",
        "meta_mean_motion": 2.00556632,
        "meta_eccentricity": 0.00034826,
        "meta_inclination": 55.1054,
        "meta_ra_of_asc_node": 156.3454,
        "meta_arg_of_pericenter": 359.6796,
        "meta_mean_anomaly": 1.4566,
        "meta_ephemeris_type": 0,
        "meta_classification_type": "U",
        "meta_norad_cat_id": 55268,
        "meta_element_set_no": 999,
        "meta_rev_at_epoch": 2125,
        "meta_bstar": 0,
        "meta_mean_motion_dot": 1.29e-06,
        "meta_mean_motion_ddot": 0,
        "tle_line1": "1 55268U 23009A   25334.02266569  .00000129  00000+0  00000+0 0  9993",
        "tle_line2": "2 55268  55.1054 156.3454 0003482 359.6796   1.4566  2.00556632 21259"
      },
      "geometry": {
        "type": "Point",
        "coordinates": [
          0.628838266204269,
          -30.606607191761167
        ]
      }
    }
  ]
}